NORAD_CAT_ID,OBJECT_NAME,OBJECT_TYPE,EPOCH,MEAN_MOTION,ECCENTRICITY,INCLINATION,RA_OF_ASC_NODE,ARG_OF_PERICENTER,MEAN_ANOMALY,BSTAR,MEAN_MOTION_DOT,MEAN_MOTION_DDOT,TLE_LINE0,TLE_LINE1,TLE_LINE2,SEMIMAJOR_AXIS,PERIOD,APOGEE,PERIGEE,DECAYED
51957.0,STARLINK-3694,PAYLOAD,2023-11-23 00:50:54,15.04782131,0.0001703,53.0542,193.4178,97.1246,262.9936,0.0002605,3.44e-05,0.0,0 STARLINK-3694,1 51957U 22025B   23327.03535521  .00003440  00000-0  26050-3 0  9996,2 51957  53.0542 193.4178 0001703  97.1246 262.9936 15.04782131 95745,6930.312,95.695,553.357,550.996,0.0
51957.0,STARLINK-3694,PAYLOAD,2023-11-23 15:11:43,15.04759071,0.0001445,53.054,190.7412,88.3273,271.7881,3.4336e-05,2.12e-06,0.0,0 STARLINK-3694,1 51957U 22025B   23327.63313730  .00000212  00000-0  34336-4 0  9999,2 51957  53.0540 190.7412 0001445  88.3273 271.7881 15.04759071 95833,6930.382,95.696,553.249,551.246,0.0
51957.0,STARLINK-3694,PAYLOAD,2023-11-23 21:34:17,15.04760337,0.0001519,53.0531,189.5534,87.7978,272.3184,-4.7471e-05,-9.54e-06,0.0,0 STARLINK-3694,1 51957U 22025B   23327.89881173 -.00000954  00000-0 -47471-4 0  9997,2 51957  53.0531 189.5534 0001519  87.7978 272.3184 15.04760337 94762,6930.378,95.696,553.296,551.191,0.0
51957.0,STARLINK-3694,PAYLOAD,2023-11-24 19:53:17,15.04770237,0.0001409,53.0532,185.3906,93.6744,266.4405,0.00016724,2.108e-05,0.0,0 STARLINK-3694,1 51957U 22025B   23328.82867438  .00002108  00000-0  16724-3 0  9996,2 51957  53.0532 185.3906 0001409  93.6744 266.4405 15.04770237 96015,6930.348,95.696,553.19,551.237,0.0
51957.0,STARLINK-3694,PAYLOAD,2023-11-25 15:01:00,15.04772647,0.0001422,53.0528,181.8216,91.4553,268.6598,0.00035747,4.823e-05,0.0,0 STARLINK-3694,1 51957U 22025B   23329.62570110  .00004823  00000-0  35747-3 0  9995,2 51957  53.0528 181.8216 0001422  91.4553 268.6598 15.04772647 95028,6930.341,95.696,553.191,551.22,0.0
51957.0,STARLINK-3694,PAYLOAD,2023-11-25 19:47:56,15.04776219,0.0001427,53.0525,180.9289,90.7247,269.3905,0.00039002,5.288e-05,0.0,0 STARLINK-3694,1 51957U 22025B   23329.82495584  .00005288  00000-0  39002-3 0  9992,2 51957  53.0525 180.9289 0001427  90.7247 269.3905 15.04776219 95054,6930.33,95.695,553.184,551.206,0.0
51957.0,STARLINK-3694,PAYLOAD,2023-11-26 19:42:34,15.04768707,0.0001454,53.0524,176.4673,88.006,272.1095,3.9088e-05,2.8e-06,0.0,0 STARLINK-3694,1 51957U 22025B   23330.82123799  .00000280  00000-0  39088-4 0  9992,2 51957  53.0524 176.4673 0001454  88.0060 272.1095 15.04768707 96318,6930.353,95.696,553.225,551.21,0.0
51957.0,STARLINK-3694,PAYLOAD,2023-11-26 21:18:13,15.04766991,0.0001444,53.0525,176.1703,84.0536,276.0616,3.2385e-06,-2.31e-06,0.0,0 STARLINK-3694,1 51957U 22025B   23330.88765736 -.00000231  00000-0  32385-5 0  9992,2 51957  53.0525 176.1703 0001444  84.0536 276.0616 15.04766991 95216,6930.358,95.696,553.224,551.222,0.0
51957.0,STARLINK-3694,PAYLOAD,2023-11-26 22:53:52,15.04767483,0.0001455,53.0525,175.8725,86.5884,273.527,6.637e-06,-1.82e-06,0.0,0 STARLINK-3694,1 51957U 22025B   23330.95407565 -.00000182  00000-0  66370-5 0  9999,2 51957  53.0525 175.8725 0001455  86.5884 273.5270 15.04767483 95227,6930.357,95.696,553.23,551.213,0.0
51957.0,STARLINK-3694,PAYLOAD,2023-11-27 18:01:35,15.04759529,0.0001665,53.0523,172.2998,142.8345,217.2758,-0.00013069,-2.139e-05,0.0,0 STARLINK-3694,1 51957U 22025B   23331.75110360 -.00002139  00000-0 -13069-3 0  9992,2 51957  53.0523 172.2998 0001665 142.8345 217.2758 15.04759529 96453,6930.381,95.696,553.4,551.092,0.0
51957.0,STARLINK-3694,PAYLOAD,2023-11-27 21:12:52,15.04767625,0.0001254,53.053,171.7094,89.1976,270.9156,5.3423e-05,4.85e-06,0.0,0 STARLINK-3694,1 51957U 22025B   23331.88394349  .00000485  00000-0  53423-4 0  9996,2 51957  53.0530 171.7094 0001254  89.1976 270.9156 15.04767625 95362,6930.356,95.696,553.09,551.352,0.0
51957.0,STARLINK-3694,PAYLOAD,2023-11-27 22:48:31,15.04770331,0.0001265,53.0535,171.4102,93.4504,266.6629,7.3483e-05,7.71e-06,0.0,0 STARLINK-3694,1 51957U 22025B   23331.95035978  .00000771  00000-0  73483-4 0  9990,2 51957  53.0535 171.4102 0001265  93.4504 266.6629 15.04770331 96480,6930.348,95.696,553.089,551.336,0.0
51957.0,STARLINK-3694,PAYLOAD,2023-11-28 13:09:18,15.04770231,0.000122,53.0524,168.7329,96.8134,263.2993,0.00020266,2.613e-05,0.0,0 STARLINK-3694,1 51957U 22025B   23332.54812848  .00002613  00000-0  20266-3 0  9992,2 51957  53.0524 168.7329 0001220  96.8134 263.2993 15.04770231 95468,6930.348,95.696,553.059,551.368,0.0
51957.0,STARLINK-3694,PAYLOAD,2023-11-28 19:31:52,15.04774925,0.0001216,53.0525,167.5443,85.3546,274.7581,0.00028543,3.795e-05,0.0,0 STARLINK-3694,1 51957U 22025B   23332.81380196  .00003795  00000-0  28543-3 0  9996,2 51957  53.0525 167.5443 0001216  85.3546 274.7581 15.04774925 95507,6930.334,95.695,553.041,551.356,0.0
51957.0,STARLINK-3694,PAYLOAD,2023-11-29 13:03:56,15.04770597,0.0001214,53.052,164.2704,114.7226,245.3889,0.00010929,1.281e-05,0.0,0 STARLINK-3694,1 51957U 22025B   23333.54440859  .00001281  00000-0  10929-3 0  9997,2 51957  53.0520 164.2704 0001214 114.7226 245.3889 15.04770597 95614,6930.347,95.696,553.053,551.371,0.0
51957.0,STARLINK-3694,PAYLOAD,2023-11-29 19:26:31,15.04773263,0.0001347,53.0536,163.0799,124.8989,235.2126,0.00015793,1.975e-05,0.0,0 STARLINK-3694,1 51957U 22025B   23333.81008216  .00001975  00000-0  15793-3 0  9998,2 51957  53.0536 163.0799 0001347 124.8989 235.2126 15.04773263 96769,6930.339,95.695,553.137,551.27,0.0
51957.0,STARLINK-3694,PAYLOAD,2023-11-30 19:21:09,15.04773422,0.0001095,53.0541,158.6228,100.2407,259.8704,-8.0804e-05,-1.429e-05,0.0,0 STARLINK-3694,1 51957U 22025B   23334.80636309 -.00001429  00000-0 -80804-4 0  9990,2 51957  53.0541 158.6228 0001095 100.2407 259.8704 15.04773422 96913,6930.338,95.695,552.962,551.444,0.0
51957.0,STARLINK-3694,PAYLOAD,2023-12-01 17:40:09,15.04782661,0.000124,53.0539,154.4578,100.9904,259.1224,-0.00011281,-1.885e-05,0.0,0 STARLINK-3694,1 51957U 22025B   23335.73622011 -.00001885  00000-0 -11281-3 0  9996,2 51957  53.0539 154.4578 0001240 100.9904 259.1224 15.04782661 95940,6930.31,95.695,553.034,551.316,0.0
51957.0,STARLINK-3694,PAYLOAD,2023-12-02 19:10:27,15.04770715,0.0001299,53.0536,149.6983,80.8236,279.29,8.4793e-05,9.32e-06,0.0,0 STARLINK-3694,1 51957U 22025B   23336.79892606  .00000932  00000-0  84793-4 0  9991,2 51957  53.0536 149.6983 0001299  80.8236 279.2900 15.04770715 97214,6930.347,95.696,553.112,551.311,0.0
51957.0,STARLINK-3694,PAYLOAD,2023-12-03 19:05:07,15.04773849,0.0001589,53.0545,145.2403,100.325,259.7918,-0.00033563,-5.059e-05,0.0,0 STARLINK-3694,1 51957U 22025B   23337.79522000 -.00005059  00000-0 -33563-3 0  9995,2 51957  53.0545 145.2403 0001589 100.3250 259.7918 15.04773849 97368,6930.337,95.695,553.303,551.101,0.0
51957.0,STARLINK-3694,PAYLOAD,2023-12-04 11:01:33,15.04757987,0.0001474,53.0538,142.2685,70.054,290.0607,-3.3366e-06,-3.25e-06,0.0,0 STARLINK-3694,1 51957U 22025B   23338.45941460 -.00000325  00000-0 -33366-5 0  9998,2 51957  53.0538 142.2685 0001474  70.0540 290.0607 15.04757987 97466,6930.386,95.696,553.272,551.229,0.0
51957.0,STARLINK-3694,PAYLOAD,2023-12-05 10:56:12,15.04756085,0.0001637,53.0544,137.8054,114.1096,246.0064,0.00016346,2.053e-05,0.0,0 STARLINK-3694,1 51957U 22025B   23339.45569770  .00002053  00000-0  16346-3 0  9994,2 51957  53.0544 137.8054 0001637 114.1096 246.0064 15.04756085 96500,6930.392,95.697,553.391,551.122,0.0
51957.0,STARLINK-3694,PAYLOAD,2023-12-05 20:30:03,15.04758984,0.0002079,53.0537,136.0194,110.0692,250.052,0.000169,2.132e-05,0.0,0 STARLINK-3694,1 51957U 22025B   23339.85421087  .00002132  00000-0  16900-3 0  9990,2 51957  53.0537 136.0194 0002079 110.0692 250.0520 15.04758984 96564,6930.383,95.696,553.688,550.807,0.0
51957.0,STARLINK-3694,PAYLOAD,2023-12-06 10:50:50,15.04774639,0.0001309,53.0546,133.3421,84.0085,276.1052,0.00012913,1.565e-05,0.0,0 STARLINK-3694,1 51957U 22025B   23340.45196782  .00001565  00000-0  12913-3 0  9998,2 51957  53.0546 133.3421 0001309  84.0085 276.1052 15.04774639 97765,6930.335,95.695,553.107,551.292,0.0
51957.0,STARLINK-3694,PAYLOAD,2023-12-07 10:45:28,15.04776738,0.0001131,53.0556,128.8799,88.3256,271.7862,3.6545e-05,2.44e-06,0.0,0 STARLINK-3694,1 51957U 22025B   23341.44825084  .00000244  00000-0  36545-4 0  9993,2 51957  53.0556 128.8799 0001131  88.3256 271.7862 15.04776738 97912,6930.328,95.695,552.977,551.409,0.0
51957.0,STARLINK-3694,PAYLOAD,2023-12-08 12:15:46,15.0476845,0.0001373,53.0541,124.1207,92.0478,268.0667,-1.927e-05,-5.52e-06,0.0,0 STARLINK-3694,1 51957U 22025B   23342.51095352 -.00000552  00000-0 -19270-4 0  9999,2 51957  53.0541 124.1207 0001373  92.0478 268.0667 15.04768450 96963,6930.354,95.696,553.17,551.267,0.0
51957.0,STARLINK-3694,PAYLOAD,2023-12-08 18:38:20,15.0476985,0.0001424,53.0539,122.9309,93.7017,266.4134,-8.3649e-06,-3.96e-06,0.0,0 STARLINK-3694,1 51957U 22025B   23342.77662690 -.00000396  00000-0 -83649-5 0  9990,2 51957  53.0539 122.9309 0001424  93.7017 266.4134 15.04769850 98118,6930.349,95.696,553.201,551.227,0.0
51957.0,STARLINK-3694,PAYLOAD,2023-12-09 08:59:07,15.04764704,0.0001659,53.053,120.2543,98.2548,261.8629,4.9081e-05,4.23e-06,0.0,0 STARLINK-3694,1 51957U 22025B   23343.37439681  .00000423  00000-0  49081-4 0  9999,2 51957  53.0530 120.2543 0001659  98.2548 261.8629 15.04764704 97096,6930.365,95.696,553.38,551.08,0.0
51957.0,STARLINK-3694,PAYLOAD,2023-12-10 13:40:42,15.04768078,0.0001346,53.0544,114.901,94.9217,265.1925,-1.0007e-05,-4.2e-06,0.0,0 STARLINK-3694,1 51957U 22025B   23344.56993411 -.00000420  00000-0 -10007-4 0  9992,2 51957  53.0544 114.9010 0001346  94.9217 265.1925 15.04768078 97273,6930.355,95.696,553.153,551.287,0.0
51957.0,STARLINK-3694,PAYLOAD,2023-12-10 15:16:21,15.04765105,0.0001164,53.0542,114.6051,96.9929,263.1192,3.1213e-05,1.68e-06,0.0,0 STARLINK-3694,1 51957U 22025B   23344.63635481  .00000168  00000-0  31213-4 0  9999,2 51957  53.0542 114.6051 0001164  96.9929 263.1192 15.04765105 98399,6930.364,95.696,553.036,551.422,0.0
